format  = 'OEF2.0'       ! file format
rectype = 'ML'           ! record type (1L/ML)
refsys  = ECLM J2000     ! default reference system
END_OF_HEADER
30102
! Cartesian position and velocity vectors
 CAR  -3.141624354767198E+00  3.883199812201892E+00  2.191304909819448E+00 -5.616429873800690E-03 -4.532863527910482E-03  1.807300513403061E-04
 MJD     56184.252843210 TDT
 MAG  10.824  0.150
! Non-grav parameters: model used, actual number in use, dimension
 LSP   0  0    6
! RMS    7.32881E-07   5.55335E-07   6.55452E-07   6.96457E-10   5.67081E-10   7.84048E-10
! EIG   8.17088E-11   2.77048E-10   7.84908E-10   3.14027E-07   7.00459E-07   8.28175E-07
! WEA  -0.83332  -0.54713   0.07887   0.00065  -0.00051  -0.00033
 COV   5.371149655803086E-13  2.354557490078648E-13  6.163733473770746E-14
 COV  -4.310096570860611E-16  2.646251750285150E-16  1.741935780011843E-16
 COV   3.083965957221651E-13 -1.308201104779745E-13 -1.500616034123045E-16
 COV   2.338140588946915E-16  1.409622722570219E-16  4.296172191351023E-13
 COV   5.330382327494049E-17  2.389640980392886E-17 -8.929273374192896E-17
 COV   4.850526570879810E-19 -2.314954563036713E-19 -1.673993913135176E-20
 COV   3.215811356890292E-19 -4.105251353079845E-20  6.147316166044891E-19
 NOR   1.072615579930309E+14 -1.066168604548359E+14 -6.569888704265027E+13
 NOR   1.004627328368780E+17  6.538548101944186E+16 -8.387033251284214E+15
 NOR   1.280902995274505E+14  7.246404132055627E+13 -1.035061385349066E+17
 NOR  -8.492601628913163E+16  2.875193223426846E+15  4.504308705830334E+13
 NOR  -6.321983653161267E+16 -4.701099873391202E+16  3.681985316198495E+15
 NOR   9.797453641654354E+19  6.694855835987427E+19 -6.777071411859344E+18
 NOR   6.275659640894386E+19  1.316404781755725E+17  3.703086751169385E+18
! EPH =   JPLDE431
